COSMOS 2419 (714)       
1 28915U 05050A   17276.57689286  .00000010  00000-0  00000-0 0  9990
2 28915  65.5499  62.2029 0015832 358.3233  77.5296  2.13106699 91645
COSMOS 2425 (716)       
1 29670U 06062A   17277.48275457  .00000034  00000-0  10000-3 0  9995
2 29670  65.4068 301.1774 0020363 338.1589 124.1389  2.13105004 83868
COSMOS 2426 (717)       
1 29671U 06062B   17277.22380089  .00000035  00000-0  10000-3 0  9997
2 29671  65.4248 301.2780 0018484 173.9347 307.2394  2.13103243 83868
COSMOS 2424 (715)       
1 29672U 06062C   17277.04168399  .00000036  00000-0  10000-3 0  9997
2 29672  65.4092 301.2042 0018086 172.5308 344.0066  2.13102409 83854
COSMOS 2433 (720)       
1 32275U 07052A   17277.57403329  .00000007  00000-0  10000-3 0  9991
2 32275  65.5661  61.9502 0001448 199.4754 164.7755  2.13104689 77383
COSMOS 2432 (719)       
1 32276U 07052B   17277.29563696  .00000008  00000-0  10000-3 0  9996
2 32276  65.5782  62.0330 0009554 344.0551 119.2592  2.13103950 77371
COSMOS 2434 (721)       
1 32393U 07065A   17277.30162758  .00000035  00000-0  00000+0 0  9991
2 32393  65.0237 300.2813 0003369 156.5018 247.8399  2.13102976 76083
COSMOS 2436 (723)       
1 32395U 07065C   17277.32764613  .00000035  00000-0  10000-3 0  9998
2 32395  65.0333 300.3265 0013506 350.1946 123.3447  2.13104352 76015
COSMOS 2443 (725)       
1 33379U 08046B   17277.45353542  .00000006  00000-0  00000+0 0  9993
2 33379  65.4962  61.3270 0012993 176.9592 353.3436  2.13099481 70248
COSMOS 2456 (730)       
1 36111U 09070A   17277.23099060  .00000023  00000-0  00000+0 0  9995
2 36111  64.1801 179.8487 0004724 313.7537 207.8786  2.13103002 60741
COSMOS 2457 (733)       
1 36112U 09070B   17277.23695944  .00000023  00000-0  00000+0 0  9999
2 36112  64.1622 179.7655 0006046 171.4364 122.8462  2.13101774 60746
COSMOS 2458 (734)       
1 36113U 09070C   17277.30499516  .00000024  00000-0  10000-3 0  9991
2 36113  64.1683 179.7711 0001592 354.1360  40.4129  2.13101865 60751
COSMOS 2459 (731)       
1 36400U 10007A   17277.46476896  .00000006  00000-0  10000-3 0  9995
2 36400  65.4753  61.0461 0025893 356.5777 145.0138  2.13102211 59100
COSMOS 2461 (735)       
1 36401U 10007B   17276.51484561  .00000008  00000-0  10000-3 0  9991
2 36401  65.4668  61.0551 0008405  80.2107 323.2515  2.13102162 59085
COSMOS 2460 (732)       
1 36402U 10007C   17277.35952446  .00000006  00000-0  10000-3 0  9995
2 36402  65.4584  60.9974 0002349 113.9439 258.5879  2.13101750 59101
COSMOS 2465 (737)       
1 37138U 10041B   17277.43986944  .00000033  00000-0  00000+0 0  9994
2 37138  64.6203 300.2088 0036507 172.5882  20.9587  2.13097531 55170
COSMOS 2464 (736)       
1 37139U 10041C   17277.55409885  .00000033  00000-0  00000+0 0  9992
2 37139  64.6276 300.2045 0021256   7.0695  98.7002  2.13102739 55175
COSMOS 2471 (701K)      
1 37372U 11009A   17277.29425131  .00000006  00000-0  00000+0 0  9999
2 37372  65.4557  60.9477 0007400 221.0121 239.9033  2.13107634 51371
COSMOS 2474 (742)       
1 37829U 11055A   17276.87557939  .00000019  00000-0  00000-0 0  9997
2 37829  64.5040 180.4704 0008662 249.9649 218.3045  2.13101968 46733
COSMOS 2476 (744)       
1 37867U 11064A   17277.40534514  .00000024  00000-0  00000+0 0  9998
2 37867  64.4848 180.5223 0018064 243.7273 316.9280  2.13102004 46096
COSMOS 2477 (745)       
1 37868U 11064B   17277.30122809  .00000023  00000-0  00000+0 0  9997
2 37868  64.4923 180.5714 0015867 244.7989  55.0519  2.13101927 46043
COSMOS 2475 (743)       
1 37869U 11064C   17277.21526139  .00000023  00000-0  00000+0 0  9992
2 37869  64.4999 180.5663 0020676 270.5954 279.8090  2.13102244 46057
COSMOS 2485 (747)       
1 39155U 13019A   17276.44226642  .00000014  00000-0  00000-0 0  9995
2 39155  64.6541 180.6077 0018472 238.4667 348.3390  2.13102092 34544
COSMOS 2492 (754)       
1 39620U 14012A   17277.60040120  .00000005  00000-0  10000-3 0  9994
2 39620  65.3484  60.9106 0012778 336.3734  93.2795  2.13103394 27525
COSMOS 2500 (755)       
1 40001U 14032A   17277.43305118  .00000005  00000-0  00000+0 0  9998
2 40001  65.2898  60.9056 0006448 186.1285 337.9688  2.13102822 25736
COSMOS 2501 (702K)      
1 40315U 14075A   17277.18627347  .00000032  00000-0  00000+0 0  9996
2 40315  64.3537 301.5209 0017019 211.2399 288.2046  2.13098625 22132
COSMOS 2514 (751)       
1 41330U 16008A   17277.46871557  .00000005  00000-0  00000+0 0  9997
2 41330  65.0899  61.0211 0009171 201.4131 170.3042  2.13103361 12900
COSMOS 2516 (753)       
1 41554U 16032A   17276.84198182  .00000034  00000-0  00000-0 0  9992
2 41554  64.5746 301.3245 0014642 223.3328 279.6216  2.13101678 10497
